STARLINK-37123          
1 68275U 26055P   26092.25003472 -.01389426  00000+0 -67358-2 0  9993
2 68275  53.1581 219.1229 0000799  84.2645 114.5288 15.84690124  3421
STARLINK-37125          
1 68276U 26055Q   26092.25003472 -.01405561  00000+0 -68506-2 0  9999
2 68276  53.1578 219.1131 0000870  80.5943 122.8878 15.84615041  3422
STARLINK-36989          
1 68277U 26055R   26092.25003472 -.01461228  00000+0 -70184-2 0  9997
2 68277  53.1577 219.0858 0000843  83.0235 133.6587 15.84560534  3422
STARLINK-36982          
1 68278U 26055S   26092.25003472 -.01451187  00000+0 -69670-2 0  9999
2 68278  53.1578 219.0954 0000830  81.0085 131.3884 15.84551871  3427
STARLINK-36934          
1 68279U 26055T   26092.25003472 -.01407069  00000+0 -68817-2 0  9992
2 68279  53.1577 219.1039 0001058  84.5461 123.5461 15.84545002  3424
STARLINK-37070          
1 68280U 26055U   26092.25003472 -.01473927  00000+0 -71077-2 0  9992
2 68280  53.1581 219.0764 0000788  70.8104 150.4557 15.84501807  3426
STARLINK-37134          
1 68281U 26055V   26092.25003472 -.01493987  00000+0 -72282-2 0  9990
2 68281  53.1575 219.0578 0000933  86.0494 144.0521 15.84468714  3425
STARLINK-37160          
1 68282U 26055W   26092.25003472 -.01486398  00000+0 -71878-2 0  9999
2 68282  53.1578 219.0678 0000863  80.1590 145.5965 15.84466196  3424
STARLINK-37124          
1 68283U 26055X   26092.25003472 -.01495345  00000+0 -72240-2 0  9996
2 68283  53.1577 219.0497 0000752  70.1432 164.1374 15.84504077  3426
STARLINK-37159          
1 68284U 26055Y   26092.25003472 -.01508745  00000+0 -73035-2 0  9999
2 68284  53.1577 219.0404 0000745  76.4991 162.2477 15.84487014  3420
STARLINK-36725          
1 68285U 26055Z   26092.25003472 -.01513203  00000+0 -73108-2 0  9996
2 68285  53.1571 219.0309 0000774  85.0214 157.8963 15.84534918  3421
STARLINK-36998          
1 68286U 26055AA  26092.25003472 -.01634593  00000+0 -79822-2 0  9992
2 68286  53.1580 219.0142 0000739  74.4136 177.4756 15.84541036  3420
