CCSDS_OMM_VERS = 2.0
CREATION_DATE  = 
ORIGINATOR     = 

OBJECT_NAME    = STARLINK-37123
OBJECT_ID      = 2026-055P
CENTER_NAME    = EARTH
REF_FRAME      = TEME
TIME_SYSTEM    = UTC
MEAN_ELEMENT_THEORY = SGP/SGP4

EPOCH          = 2026-04-02T06:00:02.999808
MEAN_MOTION    = 15.84690124
ECCENTRICITY   = .00007998
INCLINATION    = 53.1581
RA_OF_ASC_NODE = 219.1229
ARG_OF_PERICENTER = 84.2645
MEAN_ANOMALY   = 114.5288

EPHEMERIS_TYPE = 0
CLASSIFICATION_TYPE = U
NORAD_CAT_ID   = 68275
ELEMENT_SET_NO = 999
REV_AT_EPOCH   = 342
BSTAR          = -.67358119E-2
MEAN_MOTION_DOT = -.1389426E-1
MEAN_MOTION_DDOT = 0

CCSDS_OMM_VERS = 2.0
CREATION_DATE  = 
ORIGINATOR     = 

OBJECT_NAME    = STARLINK-37125
OBJECT_ID      = 2026-055Q
CENTER_NAME    = EARTH
REF_FRAME      = TEME
TIME_SYSTEM    = UTC
MEAN_ELEMENT_THEORY = SGP/SGP4

EPOCH          = 2026-04-02T06:00:02.999808
MEAN_MOTION    = 15.84615041
ECCENTRICITY   = .000087
INCLINATION    = 53.1578
RA_OF_ASC_NODE = 219.1131
ARG_OF_PERICENTER = 80.5943
MEAN_ANOMALY   = 122.8878

EPHEMERIS_TYPE = 0
CLASSIFICATION_TYPE = U
NORAD_CAT_ID   = 68276
ELEMENT_SET_NO = 999
REV_AT_EPOCH   = 342
BSTAR          = -.68506089E-2
MEAN_MOTION_DOT = -.1405561E-1
MEAN_MOTION_DDOT = 0

CCSDS_OMM_VERS = 2.0
CREATION_DATE  = 
ORIGINATOR     = 

OBJECT_NAME    = STARLINK-36989
OBJECT_ID      = 2026-055R
CENTER_NAME    = EARTH
REF_FRAME      = TEME
TIME_SYSTEM    = UTC
MEAN_ELEMENT_THEORY = SGP/SGP4

EPOCH          = 2026-04-02T06:00:02.999808
MEAN_MOTION    = 15.84560534
ECCENTRICITY   = .00008439
INCLINATION    = 53.1577
RA_OF_ASC_NODE = 219.0858
ARG_OF_PERICENTER = 83.0235
MEAN_ANOMALY   = 133.6587

EPHEMERIS_TYPE = 0
CLASSIFICATION_TYPE = U
NORAD_CAT_ID   = 68277
ELEMENT_SET_NO = 999
REV_AT_EPOCH   = 342
BSTAR          = -.70183847E-2
MEAN_MOTION_DOT = -.1461228E-1
MEAN_MOTION_DDOT = 0

CCSDS_OMM_VERS = 2.0
CREATION_DATE  = 
ORIGINATOR     = 

OBJECT_NAME    = STARLINK-36982
OBJECT_ID      = 2026-055S
CENTER_NAME    = EARTH
REF_FRAME      = TEME
TIME_SYSTEM    = UTC
MEAN_ELEMENT_THEORY = SGP/SGP4

EPOCH          = 2026-04-02T06:00:02.999808
MEAN_MOTION    = 15.84551871
ECCENTRICITY   = .00008307
INCLINATION    = 53.1578
RA_OF_ASC_NODE = 219.0954
ARG_OF_PERICENTER = 81.0085
MEAN_ANOMALY   = 131.3884

EPHEMERIS_TYPE = 0
CLASSIFICATION_TYPE = U
NORAD_CAT_ID   = 68278
ELEMENT_SET_NO = 999
REV_AT_EPOCH   = 342
BSTAR          = -.69669816E-2
MEAN_MOTION_DOT = -.1451187E-1
MEAN_MOTION_DDOT = 0

CCSDS_OMM_VERS = 2.0
CREATION_DATE  = 
ORIGINATOR     = 

OBJECT_NAME    = STARLINK-36934
OBJECT_ID      = 2026-055T
CENTER_NAME    = EARTH
REF_FRAME      = TEME
TIME_SYSTEM    = UTC
MEAN_ELEMENT_THEORY = SGP/SGP4

EPOCH          = 2026-04-02T06:00:02.999808
MEAN_MOTION    = 15.84545002
ECCENTRICITY   = .00010581
INCLINATION    = 53.1577
RA_OF_ASC_NODE = 219.1039
ARG_OF_PERICENTER = 84.5461
MEAN_ANOMALY   = 123.5461

EPHEMERIS_TYPE = 0
CLASSIFICATION_TYPE = U
NORAD_CAT_ID   = 68279
ELEMENT_SET_NO = 999
REV_AT_EPOCH   = 342
BSTAR          = -.68816771E-2
MEAN_MOTION_DOT = -.1407069E-1
MEAN_MOTION_DDOT = 0

CCSDS_OMM_VERS = 2.0
CREATION_DATE  = 
ORIGINATOR     = 

OBJECT_NAME    = STARLINK-37070
OBJECT_ID      = 2026-055U
CENTER_NAME    = EARTH
REF_FRAME      = TEME
TIME_SYSTEM    = UTC
MEAN_ELEMENT_THEORY = SGP/SGP4

EPOCH          = 2026-04-02T06:00:02.999808
MEAN_MOTION    = 15.84501807
ECCENTRICITY   = .00007885
INCLINATION    = 53.1581
RA_OF_ASC_NODE = 219.0764
ARG_OF_PERICENTER = 70.8104
MEAN_ANOMALY   = 150.4557

EPHEMERIS_TYPE = 0
CLASSIFICATION_TYPE = U
NORAD_CAT_ID   = 68280
ELEMENT_SET_NO = 999
REV_AT_EPOCH   = 342
BSTAR          = -.71076906E-2
MEAN_MOTION_DOT = -.1473927E-1
MEAN_MOTION_DDOT = 0

CCSDS_OMM_VERS = 2.0
CREATION_DATE  = 
ORIGINATOR     = 

OBJECT_NAME    = STARLINK-37134
OBJECT_ID      = 2026-055V
CENTER_NAME    = EARTH
REF_FRAME      = TEME
TIME_SYSTEM    = UTC
MEAN_ELEMENT_THEORY = SGP/SGP4

EPOCH          = 2026-04-02T06:00:02.999808
MEAN_MOTION    = 15.84468714
ECCENTRICITY   = .00009332
INCLINATION    = 53.1575
RA_OF_ASC_NODE = 219.0578
ARG_OF_PERICENTER = 86.0494
MEAN_ANOMALY   = 144.0521

EPHEMERIS_TYPE = 0
CLASSIFICATION_TYPE = U
NORAD_CAT_ID   = 68281
ELEMENT_SET_NO = 999
REV_AT_EPOCH   = 342
BSTAR          = -.72282451E-2
MEAN_MOTION_DOT = -.1493987E-1
MEAN_MOTION_DDOT = 0

CCSDS_OMM_VERS = 2.0
CREATION_DATE  = 
ORIGINATOR     = 

OBJECT_NAME    = STARLINK-37160
OBJECT_ID      = 2026-055W
CENTER_NAME    = EARTH
REF_FRAME      = TEME
TIME_SYSTEM    = UTC
MEAN_ELEMENT_THEORY = SGP/SGP4

EPOCH          = 2026-04-02T06:00:02.999808
MEAN_MOTION    = 15.84466196
ECCENTRICITY   = .00008639
INCLINATION    = 53.1578
RA_OF_ASC_NODE = 219.0678
ARG_OF_PERICENTER = 80.1590
MEAN_ANOMALY   = 145.5965

EPHEMERIS_TYPE = 0
CLASSIFICATION_TYPE = U
NORAD_CAT_ID   = 68282
ELEMENT_SET_NO = 999
REV_AT_EPOCH   = 342
BSTAR          = -.71878347E-2
MEAN_MOTION_DOT = -.1486398E-1
MEAN_MOTION_DDOT = 0

CCSDS_OMM_VERS = 2.0
CREATION_DATE  = 
ORIGINATOR     = 

OBJECT_NAME    = STARLINK-37124
OBJECT_ID      = 2026-055X
CENTER_NAME    = EARTH
REF_FRAME      = TEME
TIME_SYSTEM    = UTC
MEAN_ELEMENT_THEORY = SGP/SGP4

EPOCH          = 2026-04-02T06:00:02.999808
MEAN_MOTION    = 15.84504077
ECCENTRICITY   = .00007524
INCLINATION    = 53.1577
RA_OF_ASC_NODE = 219.0497
ARG_OF_PERICENTER = 70.1432
MEAN_ANOMALY   = 164.1374

EPHEMERIS_TYPE = 0
CLASSIFICATION_TYPE = U
NORAD_CAT_ID   = 68283
ELEMENT_SET_NO = 999
REV_AT_EPOCH   = 342
BSTAR          = -.72239779E-2
MEAN_MOTION_DOT = -.1495345E-1
MEAN_MOTION_DDOT = 0

CCSDS_OMM_VERS = 2.0
CREATION_DATE  = 
ORIGINATOR     = 

OBJECT_NAME    = STARLINK-37159
OBJECT_ID      = 2026-055Y
CENTER_NAME    = EARTH
REF_FRAME      = TEME
TIME_SYSTEM    = UTC
MEAN_ELEMENT_THEORY = SGP/SGP4

EPOCH          = 2026-04-02T06:00:02.999808
MEAN_MOTION    = 15.84487014
ECCENTRICITY   = .00007457
INCLINATION    = 53.1577
RA_OF_ASC_NODE = 219.0404
ARG_OF_PERICENTER = 76.4991
MEAN_ANOMALY   = 162.2477

EPHEMERIS_TYPE = 0
CLASSIFICATION_TYPE = U
NORAD_CAT_ID   = 68284
ELEMENT_SET_NO = 999
REV_AT_EPOCH   = 342
BSTAR          = -.7303452E-2
MEAN_MOTION_DOT = -.1508745E-1
MEAN_MOTION_DDOT = 0

CCSDS_OMM_VERS = 2.0
CREATION_DATE  = 
ORIGINATOR     = 

OBJECT_NAME    = STARLINK-36725
OBJECT_ID      = 2026-055Z
CENTER_NAME    = EARTH
REF_FRAME      = TEME
TIME_SYSTEM    = UTC
MEAN_ELEMENT_THEORY = SGP/SGP4

EPOCH          = 2026-04-02T06:00:02.999808
MEAN_MOTION    = 15.84534918
ECCENTRICITY   = .00007744
INCLINATION    = 53.1571
RA_OF_ASC_NODE = 219.0309
ARG_OF_PERICENTER = 85.0214
MEAN_ANOMALY   = 157.8963

EPHEMERIS_TYPE = 0
CLASSIFICATION_TYPE = U
NORAD_CAT_ID   = 68285
ELEMENT_SET_NO = 999
REV_AT_EPOCH   = 342
BSTAR          = -.7310836E-2
MEAN_MOTION_DOT = -.1513203E-1
MEAN_MOTION_DDOT = 0

CCSDS_OMM_VERS = 2.0
CREATION_DATE  = 
ORIGINATOR     = 

OBJECT_NAME    = STARLINK-36998
OBJECT_ID      = 2026-055AA
CENTER_NAME    = EARTH
REF_FRAME      = TEME
TIME_SYSTEM    = UTC
MEAN_ELEMENT_THEORY = SGP/SGP4

EPOCH          = 2026-04-02T06:00:02.999808
MEAN_MOTION    = 15.84541036
ECCENTRICITY   = .0000739
INCLINATION    = 53.1580
RA_OF_ASC_NODE = 219.0142
ARG_OF_PERICENTER = 74.4136
MEAN_ANOMALY   = 177.4756

EPHEMERIS_TYPE = 0
CLASSIFICATION_TYPE = U
NORAD_CAT_ID   = 68286
ELEMENT_SET_NO = 999
REV_AT_EPOCH   = 342
BSTAR          = -.7982197E-2
MEAN_MOTION_DOT = -.1634593E-1
MEAN_MOTION_DDOT = 0

